[{"OBJECT_NAME":"LANDSAT 9","OBJECT_ID":"2021-088A","EPOCH":"2026-03-04T04:49:56.026560","MEAN_MOTION":14.57119371,"ECCENTRICITY":0.00011529,"INCLINATION":98.1949,"RA_OF_ASC_NODE":135.0759,"ARG_OF_PERICENTER":89.7578,"MEAN_ANOMALY":270.3753,"EPHEMERIS_TYPE":0,"CLASSIFICATION_TYPE":"U","NORAD_CAT_ID":49260,"ELEMENT_SET_NO":999,"REV_AT_EPOCH":23571,"BSTAR":0.00014077243,"MEAN_MOTION_DOT":5.89e-6,"MEAN_MOTION_DDOT":0},{"OBJECT_NAME":"CSG-2","OBJECT_ID":"2022-008A","EPOCH":"2026-03-04T20:22:18.990624","MEAN_MOTION":14.82151991,"ECCENTRICITY":0.0001361,"INCLINATION":97.8852,"RA_OF_ASC_NODE":248.9543,"ARG_OF_PERICENTER":76.6197,"MEAN_ANOMALY":283.5168,"EPHEMERIS_TYPE":0,"CLASSIFICATION_TYPE":"U","NORAD_CAT_ID":51444,"ELEMENT_SET_NO":999,"REV_AT_EPOCH":22113,"BSTAR":6.3236e-5,"MEAN_MOTION_DOT":4.51e-6,"MEAN_MOTION_DDOT":0},{"OBJECT_NAME":"GAOFEN-12 03","OBJECT_ID":"2022-069A","EPOCH":"2026-03-04T20:44:10.560768","MEAN_MOTION":14.79840625,"ECCENTRICITY":0.0002198,"INCLINATION":97.8423,"RA_OF_ASC_NODE":314.2999,"ARG_OF_PERICENTER":97.4012,"MEAN_ANOMALY":262.745,"EPHEMERIS_TYPE":0,"CLASSIFICATION_TYPE":"U","NORAD_CAT_ID":52912,"ELEMENT_SET_NO":999,"REV_AT_EPOCH":19918,"BSTAR":0.00026458,"MEAN_MOTION_DOT":1.943e-5,"MEAN_MOTION_DDOT":0},{"OBJECT_NAME":"SWOT","OBJECT_ID":"2022-173A","EPOCH":"2026-03-04T19:23:28.875840","MEAN_MOTION":14.0016876,"ECCENTRICITY":5.27e-5,"INCLINATION":77.6118,"RA_OF_ASC_NODE":176.2092,"ARG_OF_PERICENTER":272.1927,"MEAN_ANOMALY":87.9164,"EPHEMERIS_TYPE":0,"CLASSIFICATION_TYPE":"U","NORAD_CAT_ID":54754,"ELEMENT_SET_NO":999,"REV_AT_EPOCH":16454,"BSTAR":2.2326e-5,"MEAN_MOTION_DOT":3.0e-7,"MEAN_MOTION_DDOT":0},{"OBJECT_NAME":"GAOFEN-12 04","OBJECT_ID":"2023-123A","EPOCH":"2026-03-04T21:26:03.443424","MEAN_MOTION":14.79987389,"ECCENTRICITY":0.0001692,"INCLINATION":97.9131,"RA_OF_ASC_NODE":343.426,"ARG_OF_PERICENTER":77.3142,"MEAN_ANOMALY":282.8259,"EPHEMERIS_TYPE":0,"CLASSIFICATION_TYPE":"U","NORAD_CAT_ID":57654,"ELEMENT_SET_NO":999,"REV_AT_EPOCH":13720,"BSTAR":0.00025565,"MEAN_MOTION_DOT":1.882e-5,"MEAN_MOTION_DDOT":0},{"OBJECT_NAME":"PARS 1","OBJECT_ID":"2024-039Q","EPOCH":"2026-03-04T21:10:34.018752","MEAN_MOTION":15.43274064,"ECCENTRICITY":0.0011776,"INCLINATION":97.4746,"RA_OF_ASC_NODE":41.7533,"ARG_OF_PERICENTER":124.7211,"MEAN_ANOMALY":235.5148,"EPHEMERIS_TYPE":0,"CLASSIFICATION_TYPE":"U","NORAD_CAT_ID":59065,"ELEMENT_SET_NO":999,"REV_AT_EPOCH":11254,"BSTAR":0.00039944,"MEAN_MOTION_DOT":0.00017738,"MEAN_MOTION_DDOT":0},{"OBJECT_NAME":"RESURS-P 4","OBJECT_ID":"2024-061A","EPOCH":"2026-03-04T20:23:49.231104","MEAN_MOTION":15.32875135,"ECCENTRICITY":0.0002682,"INCLINATION":97.2654,"RA_OF_ASC_NODE":13.5941,"ARG_OF_PERICENTER":64.4897,"MEAN_ANOMALY":295.6623,"EPHEMERIS_TYPE":0,"CLASSIFICATION_TYPE":"U","NORAD_CAT_ID":59371,"ELEMENT_SET_NO":999,"REV_AT_EPOCH":10778,"BSTAR":0.0001728,"MEAN_MOTION_DOT":5.41e-5,"MEAN_MOTION_DDOT":0},{"OBJECT_NAME":"LEGION 1","OBJECT_ID":"2024-081A","EPOCH":"2026-03-04T18:57:07.983072","MEAN_MOTION":15.17454122,"ECCENTRICITY":0.0005491,"INCLINATION":97.5081,"RA_OF_ASC_NODE":142.7298,"ARG_OF_PERICENTER":36.0987,"MEAN_ANOMALY":324.0616,"EPHEMERIS_TYPE":0,"CLASSIFICATION_TYPE":"U","NORAD_CAT_ID":59625,"ELEMENT_SET_NO":999,"REV_AT_EPOCH":10171,"BSTAR":0.00031834,"MEAN_MOTION_DOT":6.308e-5,"MEAN_MOTION_DDOT":0},{"OBJECT_NAME":"LEGION 2","OBJECT_ID":"2024-081B","EPOCH":"2026-03-04T18:13:43.571712","MEAN_MOTION":15.1650587,"ECCENTRICITY":0.001065,"INCLINATION":97.5083,"RA_OF_ASC_NODE":142.784,"ARG_OF_PERICENTER":2.567,"MEAN_ANOMALY":357.5615,"EPHEMERIS_TYPE":0,"CLASSIFICATION_TYPE":"U","NORAD_CAT_ID":59626,"ELEMENT_SET_NO":999,"REV_AT_EPOCH":10171,"BSTAR":0.0003579,"MEAN_MOTION_DOT":6.917e-5,"MEAN_MOTION_DDOT":0},{"OBJECT_NAME":"ALOS-4 (DAICHI-4)","OBJECT_ID":"2024-123A","EPOCH":"2026-03-04T20:50:52.260288","MEAN_MOTION":14.7947702,"ECCENTRICITY":0.0001565,"INCLINATION":97.92,"RA_OF_ASC_NODE":162.5385,"ARG_OF_PERICENTER":103.4122,"MEAN_ANOMALY":256.7264,"EPHEMERIS_TYPE":0,"CLASSIFICATION_TYPE":"U","NORAD_CAT_ID":60182,"ELEMENT_SET_NO":999,"REV_AT_EPOCH":9045,"BSTAR":0.00044028,"MEAN_MOTION_DOT":3.238e-5,"MEAN_MOTION_DDOT":0},{"OBJECT_NAME":"LEGION 3","OBJECT_ID":"2024-146A","EPOCH":"2026-03-04T19:14:17.833056","MEAN_MOTION":15.16083485,"ECCENTRICITY":0.0013789,"INCLINATION":45.0002,"RA_OF_ASC_NODE":230.131,"ARG_OF_PERICENTER":294.0138,"MEAN_ANOMALY":65.9297,"EPHEMERIS_TYPE":0,"CLASSIFICATION_TYPE":"U","NORAD_CAT_ID":60452,"ELEMENT_SET_NO":999,"REV_AT_EPOCH":8618,"BSTAR":0.00040846,"MEAN_MOTION_DOT":7.758e-5,"MEAN_MOTION_DDOT":0},{"OBJECT_NAME":"LEGION 4","OBJECT_ID":"2024-146B","EPOCH":"2026-03-04T19:11:53.362752","MEAN_MOTION":15.16140954,"ECCENTRICITY":0.0009458,"INCLINATION":45.0039,"RA_OF_ASC_NODE":321.991,"ARG_OF_PERICENTER":73.6291,"MEAN_ANOMALY":286.5626,"EPHEMERIS_TYPE":0,"CLASSIFICATION_TYPE":"U","NORAD_CAT_ID":60453,"ELEMENT_SET_NO":999,"REV_AT_EPOCH":8503,"BSTAR":0.00036768,"MEAN_MOTION_DOT":6.959e-5,"MEAN_MOTION_DDOT":0},{"OBJECT_NAME":"SENTINEL-2C","OBJECT_ID":"2024-157A","EPOCH":"2026-03-04T04:58:49.222560","MEAN_MOTION":14.30823007,"ECCENTRICITY":7.669e-5,"INCLINATION":98.5627,"RA_OF_ASC_NODE":139.4972,"ARG_OF_PERICENTER":99.9886,"MEAN_ANOMALY":260.1383,"EPHEMERIS_TYPE":0,"CLASSIFICATION_TYPE":"U","NORAD_CAT_ID":60989,"ELEMENT_SET_NO":999,"REV_AT_EPOCH":7797,"BSTAR":9.3730849e-5,"MEAN_MOTION_DOT":2.02e-6,"MEAN_MOTION_DDOT":0},{"OBJECT_NAME":"IONOSFERA-M 1","OBJECT_ID":"2024-199A","EPOCH":"2026-03-04T19:54:20.425248","MEAN_MOTION":14.22734193,"ECCENTRICITY":0.0002108,"INCLINATION":98.7335,"RA_OF_ASC_NODE":298.0161,"ARG_OF_PERICENTER":82.9872,"MEAN_ANOMALY":277.1546,"EPHEMERIS_TYPE":0,"CLASSIFICATION_TYPE":"U","NORAD_CAT_ID":61735,"ELEMENT_SET_NO":999,"REV_AT_EPOCH":11286,"BSTAR":5.4189e-5,"MEAN_MOTION_DOT":7.7e-7,"MEAN_MOTION_DDOT":0},{"OBJECT_NAME":"IONOSFERA-M 2","OBJECT_ID":"2024-199B","EPOCH":"2026-03-04T19:02:45.718944","MEAN_MOTION":14.22736583,"ECCENTRICITY":2.22e-5,"INCLINATION":98.7334,"RA_OF_ASC_NODE":297.8922,"ARG_OF_PERICENTER":75.7077,"MEAN_ANOMALY":284.4126,"EPHEMERIS_TYPE":0,"CLASSIFICATION_TYPE":"U","NORAD_CAT_ID":61736,"ELEMENT_SET_NO":999,"REV_AT_EPOCH":11598,"BSTAR":6.0752e-5,"MEAN_MOTION_DOT":9.2e-7,"MEAN_MOTION_DDOT":0},{"OBJECT_NAME":"BIOMASS","OBJECT_ID":"2025-090A","EPOCH":"2026-03-04T12:10:29.868960","MEAN_MOTION":14.67534563,"ECCENTRICITY":0.00011746,"INCLINATION":98.0747,"RA_OF_ASC_NODE":252.3303,"ARG_OF_PERICENTER":86.7786,"MEAN_ANOMALY":273.3553,"EPHEMERIS_TYPE":0,"CLASSIFICATION_TYPE":"U","NORAD_CAT_ID":63772,"ELEMENT_SET_NO":999,"REV_AT_EPOCH":4533,"BSTAR":9.2822649e-5,"MEAN_MOTION_DOT":4.78e-6,"MEAN_MOTION_DDOT":0},{"OBJECT_NAME":"GOSAT-GW (IBUKI GW)","OBJECT_ID":"2025-141A","EPOCH":"2026-03-04T20:56:35.069568","MEAN_MOTION":14.67566193,"ECCENTRICITY":0.0001426,"INCLINATION":98.0501,"RA_OF_ASC_NODE":2.9291,"ARG_OF_PERICENTER":83.5477,"MEAN_ANOMALY":276.589,"EPHEMERIS_TYPE":0,"CLASSIFICATION_TYPE":"U","NORAD_CAT_ID":64694,"ELEMENT_SET_NO":999,"REV_AT_EPOCH":3654,"BSTAR":0.00024869,"MEAN_MOTION_DOT":1.363e-5,"MEAN_MOTION_DDOT":0}]
