LANDSAT 9               
1 49260U 21088A   26063.20134290  .00000589  00000+0  14077-3 0  9991
2 49260  98.1949 135.0759 0001152  89.7578 270.3753 14.57119371235710
CSG-2                   
1 51444U 22008A   26063.84883091  .00000451  00000+0  63236-4 0  9991
2 51444  97.8852 248.9543 0001361  76.6197 283.5168 14.82151991221134
GAOFEN-12 03            
1 52912U 22069A   26063.86401112  .00001943  00000+0  26458-3 0  9992
2 52912  97.8423 314.2999 0002198  97.4012 262.7450 14.79840625199184
SWOT                    
1 54754U 22173A   26063.80797310  .00000030  00000+0  22326-4 0  9993
2 54754  77.6118 176.2092 0000527 272.1927  87.9164 14.00168760164546
GAOFEN-12 04            
1 57654U 23123A   26063.89309541  .00001882  00000+0  25565-3 0  9998
2 57654  97.9131 343.4260 0001692  77.3142 282.8259 14.79987389137207
PARS 1                  
1 59065U 24039Q   26063.88233818  .00017738  00000+0  39944-3 0  9998
2 59065  97.4746  41.7533 0011776 124.7211 235.5148 15.43274064112544
RESURS-P 4              
1 59371U 24061A   26063.84987536  .00005410  00000+0  17280-3 0  9995
2 59371  97.2654  13.5941 0002682  64.4897 295.6623 15.32875135107785
LEGION 1                
1 59625U 24081A   26063.78967573  .00006308  00000+0  31834-3 0  9999
2 59625  97.5081 142.7298 0005491  36.0987 324.0616 15.17454122101718
LEGION 2                
1 59626U 24081B   26063.75953208  .00006917  00000+0  35790-3 0  9998
2 59626  97.5083 142.7840 0010650   2.5670 357.5615 15.16505870101710
ALOS-4 (DAICHI-4)       
1 60182U 24123A   26063.86866042  .00003238  00000+0  44028-3 0  9992
2 60182  97.9200 162.5385 0001565 103.4122 256.7264 14.79477020 90457
LEGION 3                
1 60452U 24146A   26063.80159529  .00007758  00000+0  40846-3 0  9991
2 60452  45.0002 230.1310 0013789 294.0138  65.9297 15.16083485 86187
LEGION 4                
1 60453U 24146B   26063.79992318  .00006959  00000+0  36768-3 0  9991
2 60453  45.0039 321.9910 0009458  73.6291 286.5626 15.16140954 85037
SENTINEL-2C             
1 60989U 24157A   26063.20751415  .00000202  00000+0  93731-4 0  9993
2 60989  98.5627 139.4972 0000766  99.9886 260.1383 14.30823007 77975
IONOSFERA-M 1           
1 61735U 24199A   26063.82940307  .00000077  00000+0  54189-4 0  9991
2 61735  98.7335 298.0161 0002108  82.9872 277.1546 14.22734193112869
IONOSFERA-M 2           
1 61736U 24199B   26063.79358471  .00000092  00000+0  60752-4 0  9993
2 61736  98.7334 297.8922 0000222  75.7077 284.4126 14.22736583115989
BIOMASS                 
1 63772U 25090A   26063.50729015  .00000478  00000+0  92823-4 0  9993
2 63772  98.0747 252.3303 0001174  86.7786 273.3553 14.67534563 45332
GOSAT-GW (IBUKI GW)     
1 64694U 25141A   26063.87262812  .00001363  00000+0  24869-3 0  9999
2 64694  98.0501   2.9291 0001426  83.5477 276.5890 14.67566193 36547
